{
  "type": "FeatureCollection",
  "features": [
    {
      "type": "Feature",
      "properties": {
        "norad_id": 59626,
        "name": "LEGION 2",
        "group": "resource",
        "lat": 74.191237740185,
        "lon": -91.78740132487287,
        "alt_km": 513.294592975175,
        "timestamp": "2025-12-11T15:53:39.200099+00:00",
        "meta_object_name": "LEGION 2",
        "meta_object_id": "2024-081B",
        "meta_epoch": "2025-12-11T05:56:08.544768",
        "meta_mean_motion": 15.16468869,
        "meta_eccentricity": 0.00057852,
        "meta_inclination": 97.5212,
        "meta_ra_of_asc_node": 59.9853,
        "meta_arg_of_pericenter": 299.886,
        "meta_mean_anomaly": 60.1798,
        "meta_ephemeris_type": 0,
        "meta_classification_type": "U",
        "meta_norad_cat_id": 59626,
        "meta_element_set_no": 999,
        "meta_rev_at_epoch": 8905,
        "meta_bstar": 0.0004533484,
        "meta_mean_motion_dot": 8.764e-05,
        "meta_mean_motion_ddot": 0,
        "tle_line1": "1 59626U 24081B   25345.24732112  .00008764  00000+0  45335-3 0  9991",
        "tle_line2": "2 59626  97.5212  59.9853 0005785 299.8860  60.1798 15.16468869 89059"
      },
      "geometry": {
        "type": "Point",
        "coordinates": [
          -91.78740132487287,
          74.191237740185
        ]
      }
    },
    {
      "type": "Feature",
      "properties": {
        "norad_id": 60182,
        "name": "ALOS-4 (DAICHI-4)",
        "group": "resource",
        "lat": -80.32593395633025,
        "lon": -154.25147724097195,
        "alt_km": 639.2721504029432,
        "timestamp": "2025-12-11T15:53:39.200109+00:00",
        "meta_object_name": "ALOS-4 (DAICHI-4)",
        "meta_object_id": "2024-123A",
        "meta_epoch": "2025-12-10T20:50:51.532800",
        "meta_mean_motion": 14.79478132,
        "meta_eccentricity": 0.0001419,
        "meta_inclination": 97.9225,
        "meta_ra_of_asc_node": 79.7424,
        "meta_arg_of_pericenter": 101.2045,
        "meta_mean_anomaly": 258.9326,
        "meta_ephemeris_type": 0,
        "meta_classification_type": "U",
        "meta_norad_cat_id": 60182,
        "meta_element_set_no": 999,
        "meta_rev_at_epoch": 7803,
        "meta_bstar": 0.00039567,
        "meta_mean_motion_dot": 2.905e-05,
        "meta_mean_motion_ddot": 0,
        "tle_line1": "1 60182U 24123A   25344.86865200  .00002905  00000+0  39567-3 0  9990",
        "tle_line2": "2 60182  97.9225  79.7424 0001419 101.2045 258.9326 14.79478132 78033"
      },
      "geometry": {
        "type": "Point",
        "coordinates": [
          -154.25147724097195,
          -80.32593395633025
        ]
      }
    },
    {
      "type": "Feature",
      "properties": {
        "norad_id": 60452,
        "name": "LEGION 3",
        "group": "resource",
        "lat": 23.80862244054067,
        "lon": 109.70812475753523,
        "alt_km": 508.3627352008107,
        "timestamp": "2025-12-11T15:53:39.200120+00:00",
        "meta_object_name": "LEGION 3",
        "meta_object_id": "2024-146A",
        "meta_epoch": "2025-12-11T05:45:57.419424",
        "meta_mean_motion": 15.15737604,
        "meta_eccentricity": 0.00147229,
        "meta_inclination": 45.002,
        "meta_ra_of_asc_node": 318.1716,
        "meta_arg_of_pericenter": 190.5972,
        "meta_mean_anomaly": 169.4598,
        "meta_ephemeris_type": 0,
        "meta_classification_type": "U",
        "meta_norad_cat_id": 60452,
        "meta_element_set_no": 999,
        "meta_rev_at_epoch": 7350,
        "meta_bstar": 0.00048105045,
        "meta_mean_motion_dot": 9.097e-05,
        "meta_mean_motion_ddot": 0,
        "tle_line1": "1 60452U 24146A   25345.24024791  .00009097  00000+0  48105-3 0  9997",
        "tle_line2": "2 60452  45.0020 318.1716 0014722 190.5972 169.4598 15.15737604 73502"
      },
      "geometry": {
        "type": "Point",
        "coordinates": [
          109.70812475753523,
          23.80862244054067
        ]
      }
    },
    {
      "type": "Feature",
      "properties": {
        "norad_id": 60453,
        "name": "LEGION 4",
        "group": "resource",
        "lat": 25.92251794498199,
        "lon": -161.40601505430215,
        "alt_km": 521.0171972696662,
        "timestamp": "2025-12-11T15:53:39.200131+00:00",
        "meta_object_name": "LEGION 4",
        "meta_object_id": "2024-146B",
        "meta_epoch": "2025-12-11T05:46:52.253184",
        "meta_mean_motion": 15.15799695,
        "meta_eccentricity": 0.00096046,
        "meta_inclination": 45.0386,
        "meta_ra_of_asc_node": 49.9138,
        "meta_arg_of_pericenter": 303.3201,
        "meta_mean_anomaly": 56.6758,
        "meta_ephemeris_type": 0,
        "meta_classification_type": "U",
        "meta_norad_cat_id": 60453,
        "meta_element_set_no": 999,
        "meta_rev_at_epoch": 7235,
        "meta_bstar": 0.00045966743,
        "meta_mean_motion_dot": 8.683e-05,
        "meta_mean_motion_ddot": 0,
        "tle_line1": "1 60453U 24146B   25345.24088256  .00008683  00000+0  45967-3 0  9997",
        "tle_line2": "2 60453  45.0386  49.9138 0009604 303.3201  56.6758 15.15799695 72352"
      },
      "geometry": {
        "type": "Point",
        "coordinates": [
          -161.40601505430215,
          25.92251794498199
        ]
      }
    },
    {
      "type": "Feature",
      "properties": {
        "norad_id": 60989,
        "name": "SENTINEL-2C",
        "group": "resource",
        "lat": -36.304472393649476,
        "lon": -128.19932492158893,
        "alt_km": 795.7250509213463,
        "timestamp": "2025-12-11T15:53:39.200141+00:00",
        "meta_object_name": "SENTINEL-2C",
        "meta_object_id": "2024-157A",
        "meta_epoch": "2025-12-11T04:48:53.227584",
        "meta_mean_motion": 14.3081658,
        "meta_eccentricity": 0.0001195,
        "meta_inclination": 98.5683,
        "meta_ra_of_asc_node": 57.7053,
        "meta_arg_of_pericenter": 97.5952,
        "meta_mean_anomaly": 262.5367,
        "meta_ephemeris_type": 0,
        "meta_classification_type": "U",
        "meta_norad_cat_id": 60989,
        "meta_element_set_no": 999,
        "meta_rev_at_epoch": 6610,
        "meta_bstar": 0.00010288668,
        "meta_mean_motion_dot": 2.26e-06,
        "meta_mean_motion_ddot": 0,
        "tle_line1": "1 60989U 24157A   25345.20061606  .00000226  00000+0  10289-3 0  9993",
        "tle_line2": "2 60989  98.5683  57.7053 0001195  97.5952 262.5367 14.30816580 66103"
      },
      "geometry": {
        "type": "Point",
        "coordinates": [
          -128.19932492158893,
          -36.304472393649476
        ]
      }
    },
    {
      "type": "Feature",
      "properties": {
        "norad_id": 61735,
        "name": "IONOSFERA-M 1",
        "group": "resource",
        "lat": 25.154423898852805,
        "lon": 39.66176828088195,
        "alt_km": 815.8670535423271,
        "timestamp": "2025-12-11T15:53:39.200151+00:00",
        "meta_object_name": "IONOSFERA-M 1",
        "meta_object_id": "2024-199A",
        "meta_epoch": "2025-12-11T06:43:53.236992",
        "meta_mean_motion": 14.22713508,
        "meta_eccentricity": 0.00010315,
        "meta_inclination": 98.7411,
        "meta_ra_of_asc_node": 215.1399,
        "meta_arg_of_pericenter": 24.0182,
        "meta_mean_anomaly": 336.1044,
        "meta_ephemeris_type": 0,
        "meta_classification_type": "U",
        "meta_norad_cat_id": 61735,
        "meta_element_set_no": 999,
        "meta_rev_at_epoch": 10098,
        "meta_bstar": 6.726595e-05,
        "meta_mean_motion_dot": 1.06e-06,
        "meta_mean_motion_ddot": 0,
        "tle_line1": "1 61735U 24199A   25345.28047728  .00000106  00000+0  67266-4 0  9991",
        "tle_line2": "2 61735  98.7411 215.1399 0001031  24.0182 336.1044 14.22713508100988"
      },
      "geometry": {
        "type": "Point",
        "coordinates": [
          39.66176828088195,
          25.154423898852805
        ]
      }
    },
    {
      "type": "Feature",
      "properties": {
        "norad_id": 61736,
        "name": "IONOSFERA-M 2",
        "group": "resource",
        "lat": -22.76456606558832,
        "lon": -140.86755353613833,
        "alt_km": 822.3422000293067,
        "timestamp": "2025-12-11T15:53:39.200162+00:00",
        "meta_object_name": "IONOSFERA-M 2",
        "meta_object_id": "2024-199B",
        "meta_epoch": "2025-12-11T05:52:30.458208",
        "meta_mean_motion": 14.22716614,
        "meta_eccentricity": 0.00016061,
        "meta_inclination": 98.7403,
        "meta_ra_of_asc_node": 215.017,
        "meta_arg_of_pericenter": 112.6306,
        "meta_mean_anomaly": 247.5042,
        "meta_ephemeris_type": 0,
        "meta_classification_type": "U",
        "meta_norad_cat_id": 61736,
        "meta_element_set_no": 999,
        "meta_rev_at_epoch": 10410,
        "meta_bstar": 0.00012917876,
        "meta_mean_motion_dot": 2.45e-06,
        "meta_mean_motion_ddot": 0,
        "tle_line1": "1 61736U 24199B   25345.24479697  .00000245  00000+0  12918-3 0  9999",
        "tle_line2": "2 61736  98.7403 215.0170 0001606 112.6306 247.5042 14.22716614104108"
      },
      "geometry": {
        "type": "Point",
        "coordinates": [
          -140.86755353613833,
          -22.76456606558832
        ]
      }
    }
  ]
}